ONEWEB-0158             
1 48054U 21025N   26162.94824806 -.00000028  00000+0 -11116-3 0  9993
2 48054  87.8956 321.2602 0001593  92.6030 267.5281 13.13471495252941
ONEWEB-0157             
1 48055U 21025P   26162.89746349  .00000268  00000+0  69935-3 0  9999
2 48055  87.8955 321.2760 0001963 106.5331 253.6014 13.13469161252875
ONEWEB-0162             
1 48056U 21025Q   26162.94979653  .00000060  00000+0  13069-3 0  9999
2 48056  87.8952 321.2665 0001979  94.1719 265.9637 13.13470099252853
ONEWEB-0155             
1 48057U 21025R   26162.95670375  .00000141  00000+0  35038-3 0  9990
2 48057  87.8950 321.2612 0001784 100.4537 259.6794 13.13469582252991
ONEWEB-0149             
1 48058U 21025S   26162.90253862  .00000189  00000+0  48321-3 0  9995
2 48058  87.8956 321.2754 0002017  93.7679 266.3681 13.13469297252797
ONEWEB-0148             
1 48059U 21025T   26162.94146657 -.00000153  00000+0 -45285-3 0  9992
2 48059  87.8949 321.2750 0002414  95.3915 264.7489 13.13470143252923
ONEWEB-0160             
1 48060U 21025U   26162.95839621  .00000211  00000+0  54317-3 0  9994
2 48060  87.8949 321.2677 0001549  71.5268 288.6030 13.13471083252873
ONEWEB-0163             
1 48061U 21025V   26162.94315378 -.00000096  00000+0 -29662-3 0  9990
2 48061  87.8955 321.2648 0001909 104.4477 255.6864 13.13471156252990
ONEWEB-0159             
1 48062U 21025W   26162.93469070 -.00000246  00000+0 -70855-3 0  9996
2 48062  87.8959 321.2600 0001854 103.7506 256.3829 13.13470648252913
ONEWEB-0164             
1 48063U 21025X   26162.91606965 -.00000156  00000+0 -46261-3 0  9995
2 48063  87.8960 321.2698 0001745  93.8628 266.2701 13.13469243252891
ONEWEB-0167             
1 48064U 21025Y   26162.94398926 -.00000320  00000+0 -91020-3 0  9990
2 48064  87.8947 321.2748 0001531 117.1871 242.9414 13.13470365252884
ONEWEB-0166             
1 48065U 21025Z   26162.96685071  .00000369  00000+0  97426-3 0  9990
2 48065  87.8959 321.2411 0002008  96.7492 263.3865 13.13471048252961
ONEWEB-0151             
1 48066U 21025AA  26162.81619377  .00000314  00000+0  82437-3 0  9997
2 48066  87.8949 321.2884 0001693  98.0524 262.0798 13.13469847252881
ONEWEB-0170             
1 48067U 21025AB  26162.90083785  .00000183  00000+0  46591-3 0  9991
2 48067  87.8950 321.2733 0001361  90.1544 269.9741 13.13468921252857
ONEWEB-0168             
1 48068U 21025AC  26162.96178039  .00000357  00000+0  94398-3 0  9996
2 48068  87.8957 321.2608 0001933 100.1065 260.0282 13.13469686252874
ONEWEB-0173             
1 48069U 21025AD  26162.87713892  .00000146  00000+0  36514-3 0  9991
2 48069  87.8949 321.2798 0001840 108.1180 252.0150 13.13470333253102
ONEWEB-0171             
1 48070U 21025AE  26162.91437931 -.00000129  00000+0 -38919-3 0  9999
2 48070  87.8950 321.2802 0001701  96.0647 264.0676 13.13469510252921
ONEWEB-0172             
1 48071U 21025AF  26162.89406294  .00000313  00000+0  82134-3 0  9996
2 48071  87.8955 321.2740 0001717 100.8199 259.3124 13.13470682253817
ONEWEB-0174             
1 48072U 21025AG  26162.95163052  .00000089  00000+0  20890-3 0  9997
2 48072  87.8952 321.2621 0001968  96.8086 263.3267 13.13470518253147
ONEWEB-0175             
1 48073U 21025AH  26162.90591987  .00000109  00000+0  26436-3 0  9990
2 48073  87.8958 321.2550 0001457  98.4741 261.6554 13.13469485252795
ONEWEB-0177             
1 48074U 21025AJ  26162.91776181 -.00000211  00000+0 -61162-3 0  9994
2 48074  87.8957 321.2711 0001968 100.6832 259.4519 13.13470328252983
ONEWEB-0178             
1 48075U 21025AK  26162.93650914 -.00000389  00000+0 -10998-2 0  9998
2 48075  87.8939 321.2810 0001663 103.4235 256.7080 13.13469517253032
ONEWEB-0108             
1 48076U 21025AL  26162.89576130  .00000302  00000+0  79177-3 0  9999
2 48076  87.8960 321.2669 0001921  89.4658 270.6692 13.13469645252954
ONEWEB-0169             
1 48077U 21025AM  26162.92791865 -.00000318  00000+0 -90604-3 0  9995
2 48077  87.8951 321.2689 0001938  96.3780 263.7570 13.13469758251613
ONEWEB-0176             
1 48210U 21031A   26162.85074684 -.00000244  00000+0 -69141-3 0  9996
2 48210  87.8960 290.7629 0001836 103.2680 256.8655 13.14502963247619
ONEWEB-0184             
1 48211U 21031B   26162.59543058  .00000049  00000+0  98010-4 0  9993
2 48211  87.8969 290.8141 0001314 122.0933 238.0324 13.14502584247557
ONEWEB-0179             
1 48212U 21031C   26162.76015219  .00000166  00000+0  49250-4 0  9998
2 48212  87.8985 288.2788 0218621 275.0931  82.5343 14.25519311248274
ONEWEB-0180             
1 48213U 21031D   26162.90307778 -.00000119  00000+0 -35417-3 0  9998
2 48213  87.8967 290.7490 0002064 112.6854 247.4494 13.14502285247520
ONEWEB-0218             
1 48214U 21031E   26162.77304008 -.00000198  00000+0 -56764-3 0  9992
2 48214  87.8968 290.7741 0001605 128.3401 231.7873 13.14502153247669
ONEWEB-0209             
1 48215U 21031F   26162.91416245 -.00000336  00000+0 -93994-3 0  9996
2 48215  87.8960 290.7632 0002079 104.3950 255.7411 13.14501372247688
