OBJECT_NAME,OBJECT_ID,EPOCH,MEAN_MOTION,ECCENTRICITY,INCLINATION,RA_OF_ASC_NODE,ARG_OF_PERICENTER,MEAN_ANOMALY,EPHEMERIS_TYPE,CLASSIFICATION_TYPE,NORAD_CAT_ID,ELEMENT_SET_NO,REV_AT_EPOCH,BSTAR,MEAN_MOTION_DOT,MEAN_MOTION_DDOT
ONEWEB-0158,2021-025N,2026-06-11T22:45:28.632384,13.13471495,.00015938,87.8956,321.2602,92.6030,267.5281,0,U,48054,999,25294,-.11115528E-3,-.28E-6,0
ONEWEB-0157,2021-025P,2026-06-11T21:32:20.845536,13.13469161,.00019639,87.8955,321.2760,106.5331,253.6014,0,U,48055,999,25287,.69935384E-3,.268E-5,0
ONEWEB-0162,2021-025Q,2026-06-11T22:47:42.420192,13.13470099,.00019795,87.8952,321.2665,94.1719,265.9637,0,U,48056,999,25285,.13069071E-3,.6E-6,0
ONEWEB-0155,2021-025R,2026-06-11T22:57:39.204000,13.13469582,.00017849,87.8950,321.2612,100.4537,259.6794,0,U,48057,999,25299,.35037644E-3,.141E-5,0
ONEWEB-0149,2021-025S,2026-06-11T21:39:39.336768,13.13469297,.00020175,87.8956,321.2754,93.7679,266.3681,0,U,48058,999,25279,.48320852E-3,.189E-5,0
ONEWEB-0148,2021-025T,2026-06-11T22:35:42.711648,13.13470143,.0002414,87.8949,321.2750,95.3915,264.7489,0,U,48059,999,25292,-.45284811E-3,-.153E-5,0
ONEWEB-0160,2021-025U,2026-06-11T23:00:05.432544,13.13471083,.00015491,87.8949,321.2677,71.5268,288.6030,0,U,48060,999,25287,.54317016E-3,.211E-5,0
ONEWEB-0163,2021-025V,2026-06-11T22:38:08.486592,13.13471156,.00019097,87.8955,321.2648,104.4477,255.6864,0,U,48061,999,25299,-.29661779E-3,-.96E-6,0
ONEWEB-0159,2021-025W,2026-06-11T22:25:57.276480,13.13470648,.0001854,87.8959,321.2600,103.7506,256.3829,0,U,48062,999,25291,-.708548E-3,-.246E-5,0
ONEWEB-0164,2021-025X,2026-06-11T21:59:08.417760,13.13469243,.00017457,87.8960,321.2698,93.8628,266.2701,0,U,48063,999,25289,-.46260571E-3,-.156E-5,0
ONEWEB-0167,2021-025Y,2026-06-11T22:39:20.672064,13.13470365,.00015317,87.8947,321.2748,117.1871,242.9414,0,U,48064,999,25288,-.91020349E-3,-.32E-5,0
ONEWEB-0166,2021-025Z,2026-06-11T23:12:15.901344,13.13471048,.00020082,87.8959,321.2411,96.7492,263.3865,0,U,48065,999,25296,.97425987E-3,.369E-5,0
ONEWEB-0151,2021-025AA,2026-06-11T19:35:19.141728,13.13469847,.00016932,87.8949,321.2884,98.0524,262.0798,0,U,48066,999,25288,.8243705E-3,.314E-5,0
ONEWEB-0170,2021-025AB,2026-06-11T21:37:12.390240,13.13468921,.00013617,87.8950,321.2733,90.1544,269.9741,0,U,48067,999,25285,.46591328E-3,.183E-5,0
ONEWEB-0168,2021-025AC,2026-06-11T23:04:57.825696,13.13469686,.00019334,87.8957,321.2608,100.1065,260.0282,0,U,48068,999,25287,.94398123E-3,.357E-5,0
ONEWEB-0173,2021-025AD,2026-06-11T21:03:04.802688,13.13470333,.00018401,87.8949,321.2798,108.1180,252.0150,0,U,48069,999,25310,.36513697E-3,.146E-5,0
ONEWEB-0171,2021-025AE,2026-06-11T21:56:42.372384,13.13469510,.00017013,87.8950,321.2802,96.0647,264.0676,0,U,48070,999,25292,-.38919219E-3,-.129E-5,0
ONEWEB-0172,2021-025AF,2026-06-11T21:27:27.038016,13.13470682,.00017177,87.8955,321.2740,100.8199,259.3124,0,U,48071,999,25381,.8213374E-3,.313E-5,0
ONEWEB-0174,2021-025AG,2026-06-11T22:50:20.876928,13.13470518,.00019684,87.8952,321.2621,96.8086,263.3267,0,U,48072,999,25314,.20889866E-3,.89E-6,0
ONEWEB-0175,2021-025AH,2026-06-11T21:44:31.476768,13.13469485,.00014579,87.8958,321.2550,98.4741,261.6554,0,U,48073,999,25279,.26436113E-3,.109E-5,0
ONEWEB-0177,2021-025AJ,2026-06-11T22:01:34.620384,13.13470328,.00019687,87.8957,321.2711,100.6832,259.4519,0,U,48074,999,25298,-.61162118E-3,-.211E-5,0
ONEWEB-0178,2021-025AK,2026-06-11T22:28:34.389696,13.13469517,.00016632,87.8939,321.2810,103.4235,256.7080,0,U,48075,999,25303,-.109975E-2,-.389E-5,0
ONEWEB-0108,2021-025AL,2026-06-11T21:29:53.776320,13.13469645,.00019214,87.8960,321.2669,89.4658,270.6692,0,U,48076,999,25295,.7917723E-3,.302E-5,0
ONEWEB-0169,2021-025AM,2026-06-11T22:16:12.171360,13.13469758,.0001938,87.8951,321.2689,96.3780,263.7570,0,U,48077,999,25161,-.90604411E-3,-.318E-5,0
ONEWEB-0176,2021-031A,2026-06-11T20:25:04.526976,13.14502963,.00018369,87.8960,290.7629,103.2680,256.8655,0,U,48210,999,24761,-.6914098E-3,-.244E-5,0
ONEWEB-0184,2021-031B,2026-06-11T14:17:25.202112,13.14502584,.0001314,87.8969,290.8141,122.0933,238.0324,0,U,48211,999,24755,.9801E-4,.49E-6,0
ONEWEB-0179,2021-031C,2026-06-11T18:14:37.149216,14.25519311,.02186212,87.8985,288.2788,275.0931,82.5343,0,U,48212,999,24827,.49249962E-4,.166E-5,0
ONEWEB-0180,2021-031D,2026-06-11T21:40:25.920192,13.14502285,.00020647,87.8967,290.7490,112.6854,247.4494,0,U,48213,999,24752,-.35416744E-3,-.119E-5,0
ONEWEB-0218,2021-031E,2026-06-11T18:33:10.662912,13.14502153,.00016054,87.8968,290.7741,128.3401,231.7873,0,U,48214,999,24766,-.56763976E-3,-.198E-5,0
ONEWEB-0209,2021-031F,2026-06-11T21:56:23.635680,13.14501372,.00020793,87.8960,290.7632,104.3950,255.7411,0,U,48215,999,24768,-.93993691E-3,-.336E-5,0
